OBJECT_NAME,OBJECT_ID,EPOCH,MEAN_MOTION,ECCENTRICITY,INCLINATION,RA_OF_ASC_NODE,ARG_OF_PERICENTER,MEAN_ANOMALY,EPHEMERIS_TYPE,CLASSIFICATION_TYPE,NORAD_CAT_ID,ELEMENT_SET_NO,REV_AT_EPOCH,BSTAR,MEAN_MOTION_DOT,MEAN_MOTION_DDOT
H-2A R/B,2006-002B,2026-07-12T11:52:29.992512,15.18418920,.00506451,98.2582,351.6228,175.1484,185.0249,0,U,28932,999,11336,.22864524E-3,.478E-4,0
RESURS-DK 1,2006-021A,2026-07-12T13:12:31.999104,15.13313451,.0006967,69.9310,273.8939,274.1061,85.9309,0,U,29228,999,10641,.5985417E-4,.96E-5,0
CZ-4B R/B,2006-046C,2026-07-12T13:37:11.861760,15.17968473,.00323106,97.5443,238.0964,191.3167,168.7343,0,U,29507,999,7898,.1136256E-3,.2267E-4,0
CZ-2C R/B,2007-010B,2026-07-12T06:43:50.761632,14.20281357,.0057827,98.4116,300.4065,292.4166,67.0893,0,U,31114,999,99740,.27573E-4,.18E-6,0
COSMO-SKYMED 1,2007-023A,2026-07-12T14:22:27.352416,14.97211589,.00012066,97.8844,25.6697,102.3868,257.7489,0,U,31598,999,3359,.1145067E-3,.1265E-4,0
COSMOS 2428,2007-029A,2026-07-12T13:25:33.804192,14.12932890,.00071937,70.9382,301.2054,86.4041,273.7903,0,U,31792,999,98173,.12504866E-3,.185E-5,0
SL-16 R/B,2007-029B,2026-07-12T13:42:17.650368,14.14850860,.00020119,70.9747,269.8693,256.4266,213.9758,0,U,31793,999,98303,.48645768E-4,.46E-6,0
KORONAS-FOTON,2009-003A,2026-07-11T20:50:45.868416,15.46244824,.00123893,82.4297,146.5036,72.5138,287.7464,0,U,33504,999,96491,.16497862E-3,.8175E-4,0
CZ-2C R/B,2011-030B,2026-07-12T10:41:54.151296,14.81529204,.00509529,97.8669,148.3790,305.3401,167.2203,0,U,37731,999,80856,.75888091E-4,.553E-5,0
H-2A R/B,2012-025E,2026-07-12T12:14:44.898432,14.95833596,.00423519,98.4848,170.7478,264.2031,95.4358,0,U,38341,999,76687,.6479961E-4,.665E-5,0
SHIJIAN-16 (SJ-16),2013-057A,2026-07-12T15:24:53.849952,14.92666471,.00158824,74.9737,308.4696,171.1178,189.0295,0,U,39358,999,69014,.62532173E-4,.617E-5,0
SL-4 R/B,2014-021B,2026-07-12T03:23:15.849024,15.42441534,.00898122,51.6063,88.4767,197.2226,162.5706,0,U,39679,999,67546,.11873934E-3,.5567E-4,0
ALOS-2,2014-029A,2026-07-12T13:39:32.245344,14.79471192,.00016088,97.9227,290.3703,93.8084,266.3312,0,U,39766,999,65533,.1661811E-3,.119E-4,0
YAOGAN-29,2015-069A,2026-07-12T14:42:52.081056,14.83103585,.00009858,98.0026,222.2848,14.5007,345.6234,0,U,41038,999,57439,-.25848916E-4,-.264E-5,0
ASTRO-H (HITOMI),2016-012A,2026-07-12T11:22:56.894304,15.10625525,.00096044,30.9988,270.8641,147.9668,212.1556,0,U,41337,999,57111,.79685641E-4,.1447E-4,0
HXMT (HUIYAN),2017-034A,2026-07-12T15:43:02.373312,15.18675606,.00325386,43.0151,41.2092,305.1909,54.5894,0,U,42758,999,50153,.1403888E-3,.2757E-4,0
SAOCOM 1A,2018-076A,2026-07-12T14:06:00.813888,14.82144320,.00014289,97.8887,19.9673,83.9021,276.2355,0,U,43641,999,41986,-.36925742E-4,-.346E-5,0
H-2A R/B,2018-084L,2026-07-12T15:14:33.882432,15.46134702,.00207062,98.8543,78.1023,310.1111,49.8318,0,U,43682,999,42505,.27750264E-3,.13595E-3,0
SAOCOM 1B,2020-059A,2026-07-12T14:50:58.316928,14.82158555,.00015643,97.8891,19.0943,82.6723,277.4668,0,U,46265,999,31725,.74528417E-4,.541E-5,0
CSS (TIANHE),2021-035A,2026-07-12T07:55:55.916256,15.58035041,.00024282,41.4686,169.1964,290.9815,69.0763,0,U,48274,999,29709,.14700842E-4,.806E-5,0
COSMOS 2550,2021-056A,2026-07-12T07:47:50.360352,15.33806320,.00084315,67.1435,23.8662,270.9704,89.0484,0,U,48865,999,28257,.24042311E-4,.599E-5,0
CZ-2C R/B,2022-058K,2026-07-11T23:42:02.606688,15.63671011,.00304344,50.1857,34.3009,9.2054,350.9472,0,U,52794,999,22952,.29588771E-3,.28373E-3,0
CZ-2C R/B,2022-132E,2026-07-12T14:19:35.639328,15.74723535,.00099654,97.2893,201.8140,353.9386,6.1757,0,U,54039,999,20994,.32231794E-3,.47389E-3,0
GSLV R/B,2022-138AN,2026-07-12T05:54:46.379232,14.97374381,.0023807,87.3818,124.5695,61.8951,298.4683,0,U,54149,999,20256,.11808E-3,.1408E-4,0
XRISM,2023-137A,2026-07-12T11:09:29.403360,15.12657724,.00078336,31.0006,195.8363,219.3306,140.6765,0,U,57800,999,15669,.10954946E-3,.2062E-4,0
ACS3,2024-077B,2026-07-11T17:46:17.954112,13.95349463,.01210111,97.1723,106.0854,40.7850,320.2298,0,U,59588,999,11146,.713075E-2,.10248E-3,0
SPACEMOBILE-003,2024-163A,2026-07-12T02:59:11.082912,15.20757146,.00039532,52.9645,194.7701,176.8899,183.2120,0,U,61045,999,10156,.15017438E-4,.8E-7,0
SPACEMOBILE-005,2024-163B,2026-07-12T08:53:56.033088,15.20767447,.00086807,52.9783,193.5770,187.3412,172.7457,0,U,61046,999,10159,.15375666E-3,.3105E-4,0
SPACEMOBILE-001,2024-163C,2026-07-11T10:46:43.885920,15.20792937,.00074751,52.9736,197.5273,183.3179,176.7767,0,U,61047,999,10145,.28550562E-4,.309E-5,0
SPACEMOBILE-002,2024-163D,2026-07-11T00:55:48.887328,15.20841812,.00066201,52.9623,199.4399,180.9990,179.0992,0,U,61048,999,10139,.38280824E-3,.8243E-4,0
